[{"OBJECT_NAME":"SAOCOM 1A","OBJECT_ID":"2018-076A","EPOCH":"2026-03-18T12:53:06.982368","MEAN_MOTION":14.82149157,"ECCENTRICITY":0.00014376,"INCLINATION":97.8892,"RA_OF_ASC_NODE":265.5844,"ARG_OF_PERICENTER":88.2307,"MEAN_ANOMALY":271.9071,"EPHEMERIS_TYPE":0,"CLASSIFICATION_TYPE":"U","NORAD_CAT_ID":43641,"ELEMENT_SET_NO":999,"REV_AT_EPOCH":40267,"BSTAR":3.7144928e-5,"MEAN_MOTION_DOT":2.43e-6,"MEAN_MOTION_DDOT":0},{"OBJECT_NAME":"H-2A R/B","OBJECT_ID":"2018-084L","EPOCH":"2026-03-18T13:27:19.084320","MEAN_MOTION":15.41717347,"ECCENTRICITY":0.00246877,"INCLINATION":98.8719,"RA_OF_ASC_NODE":296.8474,"ARG_OF_PERICENTER":354.8888,"MEAN_ANOMALY":5.2098,"EPHEMERIS_TYPE":0,"CLASSIFICATION_TYPE":"U","NORAD_CAT_ID":43682,"ELEMENT_SET_NO":999,"REV_AT_EPOCH":40714,"BSTAR":0.00034781057,"MEAN_MOTION_DOT":0.00014742,"MEAN_MOTION_DDOT":0},{"OBJECT_NAME":"SAOCOM 1B","OBJECT_ID":"2020-059A","EPOCH":"2026-03-18T18:29:42.046656","MEAN_MOTION":14.82146128,"ECCENTRICITY":0.0001428,"INCLINATION":97.8901,"RA_OF_ASC_NODE":264.913,"ARG_OF_PERICENTER":93.223,"MEAN_ANOMALY":266.9146,"EPHEMERIS_TYPE":0,"CLASSIFICATION_TYPE":"U","NORAD_CAT_ID":46265,"ELEMENT_SET_NO":999,"REV_AT_EPOCH":30009,"BSTAR":6.3952e-5,"MEAN_MOTION_DOT":4.57e-6,"MEAN_MOTION_DDOT":0},{"OBJECT_NAME":"CSS (TIANHE)","OBJECT_ID":"2021-035A","EPOCH":"2026-03-18T14:36:59.219136","MEAN_MOTION":15.6114338,"ECCENTRICITY":0.00060343,"INCLINATION":41.467,"RA_OF_ASC_NODE":153.8729,"ARG_OF_PERICENTER":328.4724,"MEAN_ANOMALY":31.5753,"EPHEMERIS_TYPE":0,"CLASSIFICATION_TYPE":"U","NORAD_CAT_ID":48274,"ELEMENT_SET_NO":999,"REV_AT_EPOCH":27900,"BSTAR":0.00035871696,"MEAN_MOTION_DOT":0.00030981,"MEAN_MOTION_DDOT":0},{"OBJECT_NAME":"CZ-2C R/B","OBJECT_ID":"2022-058K","EPOCH":"2026-03-18T13:48:49.421664","MEAN_MOTION":15.54860214,"ECCENTRICITY":0.0041907,"INCLINATION":50.1878,"RA_OF_ASC_NODE":272.5578,"ARG_OF_PERICENTER":238.709,"MEAN_ANOMALY":120.9774,"EPHEMERIS_TYPE":0,"CLASSIFICATION_TYPE":"U","NORAD_CAT_ID":52794,"ELEMENT_SET_NO":999,"REV_AT_EPOCH":21151,"BSTAR":0.00039610812,"MEAN_MOTION_DOT":0.00027624,"MEAN_MOTION_DDOT":0},{"OBJECT_NAME":"CZ-2C R/B","OBJECT_ID":"2022-132E","EPOCH":"2026-03-18T06:35:59.858304","MEAN_MOTION":15.62634555,"ECCENTRICITY":0.0019743,"INCLINATION":97.2952,"RA_OF_ASC_NODE":80.8573,"ARG_OF_PERICENTER":64.2408,"MEAN_ANOMALY":296.0885,"EPHEMERIS_TYPE":0,"CLASSIFICATION_TYPE":"U","NORAD_CAT_ID":54039,"ELEMENT_SET_NO":999,"REV_AT_EPOCH":19171,"BSTAR":0.00037926,"MEAN_MOTION_DOT":0.00034194,"MEAN_MOTION_DDOT":0},{"OBJECT_NAME":"GSLV R/B","OBJECT_ID":"2022-138AN","EPOCH":"2026-03-18T11:29:20.583744","MEAN_MOTION":14.9683437,"ECCENTRICITY":0.0023888,"INCLINATION":87.3877,"RA_OF_ASC_NODE":163.4208,"ARG_OF_PERICENTER":117.3396,"MEAN_ANOMALY":243.0272,"EPHEMERIS_TYPE":0,"CLASSIFICATION_TYPE":"U","NORAD_CAT_ID":54149,"ELEMENT_SET_NO":999,"REV_AT_EPOCH":18524,"BSTAR":0.00018553644,"MEAN_MOTION_DOT":2.166e-5,"MEAN_MOTION_DDOT":0},{"OBJECT_NAME":"XRISM","OBJECT_ID":"2023-137A","EPOCH":"2026-03-18T13:19:39.482112","MEAN_MOTION":15.11597369,"ECCENTRICITY":0.00079253,"INCLINATION":31.0008,"RA_OF_ASC_NODE":226.3134,"ARG_OF_PERICENTER":128.2421,"MEAN_ANOMALY":231.8932,"EPHEMERIS_TYPE":0,"CLASSIFICATION_TYPE":"U","NORAD_CAT_ID":57800,"ELEMENT_SET_NO":999,"REV_AT_EPOCH":13913,"BSTAR":0.00025283418,"MEAN_MOTION_DOT":4.499e-5,"MEAN_MOTION_DDOT":0},{"OBJECT_NAME":"ACS3","OBJECT_ID":"2024-077B","EPOCH":"2026-03-18T13:39:32.683392","MEAN_MOTION":13.89981511,"ECCENTRICITY":0.00677967,"INCLINATION":97.2021,"RA_OF_ASC_NODE":16.6855,"ARG_OF_PERICENTER":55.8075,"MEAN_ANOMALY":304.9491,"EPHEMERIS_TYPE":0,"CLASSIFICATION_TYPE":"U","NORAD_CAT_ID":59588,"ELEMENT_SET_NO":999,"REV_AT_EPOCH":9543,"BSTAR":0.0087550557,"MEAN_MOTION_DOT":0.00010976,"MEAN_MOTION_DDOT":0},{"OBJECT_NAME":"SZ-21 MODULE","OBJECT_ID":"2025-246C","EPOCH":"2026-03-18T12:56:49.994592","MEAN_MOTION":15.69230343,"ECCENTRICITY":4.776e-5,"INCLINATION":41.4738,"RA_OF_ASC_NODE":148.8547,"ARG_OF_PERICENTER":292.1706,"MEAN_ANOMALY":67.9085,"EPHEMERIS_TYPE":0,"CLASSIFICATION_TYPE":"U","NORAD_CAT_ID":66515,"ELEMENT_SET_NO":999,"REV_AT_EPOCH":1946,"BSTAR":0.00024028713,"MEAN_MOTION_DOT":0.00028586,"MEAN_MOTION_DDOT":0}]
